{
    "links": {
        "self": "http://www.neowsapp.com/rest/v1/neo/3840715?api_key=iIulBulltgU6a56xZRHN4H3l9WmuAYTsLGpBGhQ2"
    },
    "id": "3840715",
    "neo_reference_id": "3840715",
    "name": "(2019 FO1)",
    "designation": "2019 FO1",
    "nasa_jpl_url": "http://ssd.jpl.nasa.gov/sbdb.cgi?sstr=3840715",
    "absolute_magnitude_h": 25.4,
    "estimated_diameter": {
        "kilometers": {
            "estimated_diameter_min": 0.022108281,
            "estimated_diameter_max": 0.0494356193
        },
        "meters": {
            "estimated_diameter_min": 22.1082810359,
            "estimated_diameter_max": 49.435619262
        },
        "miles": {
            "estimated_diameter_min": 0.0137374447,
            "estimated_diameter_max": 0.0307178602
        },
        "feet": {
            "estimated_diameter_min": 72.5337327539,
            "estimated_diameter_max": 162.1903570994
        }
    },
    "is_potentially_hazardous_asteroid": false,
    "close_approach_data": [
        {
            "close_approach_date": "2000-03-11",
            "close_approach_date_full": "2000-Mar-11 16:11",
            "epoch_date_close_approach": 952791060000,
            "relative_velocity": {
                "kilometers_per_second": "4.9252507884",
                "kilometers_per_hour": "17730.9028384043",
                "miles_per_hour": "11017.2934886741"
            },
            "miss_distance": {
                "astronomical": "0.7392160906",
                "lunar": "287.5550592434",
                "kilometers": "110585152.623487022",
                "miles": "68714427.5098920236"
            },
            "orbiting_body": "Juptr"
        },
        {
            "close_approach_date": "2019-04-13",
            "close_approach_date_full": "2019-Apr-13 14:52",
            "epoch_date_close_approach": 1555167120000,
            "relative_velocity": {
                "kilometers_per_second": "9.6919827235",
                "kilometers_per_hour": "34891.1378047374",
                "miles_per_hour": "21679.9961542825"
            },
            "miss_distance": {
                "astronomical": "0.03666574",
                "lunar": "14.26297286",
                "kilometers": "5485116.6059738",
                "miles": "3408293.41428644"
            },
            "orbiting_body": "Earth"
        }
    ],
    "orbital_data": {
        "orbit_id": "8",
        "orbit_determination_date": "2020-09-11 07:42:39",
        "first_observation_date": "2019-03-29",
        "last_observation_date": "2019-04-16",
        "data_arc_in_days": 18,
        "observations_used": 84,
        "orbit_uncertainty": "7",
        "minimum_orbit_intersection": ".0277266",
        "jupiter_tisserand_invariant": "3.104",
        "epoch_osculation": "2459000.5",
        "eccentricity": ".616526193492354",
        "semi_major_axis": "2.615133006466695",
        "inclination": "3.758861156091063",
        "ascending_node_longitude": "187.5822343671954",
        "orbital_period": "1544.682050683955",
        "perihelion_distance": "1.002835008513568",
        "perihelion_argument": "37.59506781580148",
        "aphelion_distance": "4.227431004419823",
        "perihelion_time": "2458604.237190292714",
        "mean_anomaly": "92.35208723468892",
        "mean_motion": ".2330576702439179",
        "equinox": "J2000",
        "orbit_class": {
            "orbit_class_type": "APO",
            "orbit_class_description": "Near-Earth asteroid orbits which cross the Earth’s orbit similar to that of 1862 Apollo",
            "orbit_class_range": "a (semi-major axis) > 1.0 AU; q (perihelion) < 1.017 AU"
        }
    },
    "is_sentry_object": false
}